[{"OBJECT_NAME":"ONEWEB-0342","OBJECT_ID":"2021-083Y","EPOCH":"2026-03-09T15:43:04.954080","MEAN_MOTION":13.20770626,"ECCENTRICITY":0.00016801,"INCLINATION":87.9174,"RA_OF_ASC_NODE":294.3102,"ARG_OF_PERICENTER":90.1608,"MEAN_ANOMALY":269.9717,"EPHEMERIS_TYPE":0,"CLASSIFICATION_TYPE":"U","NORAD_CAT_ID":49208,"ELEMENT_SET_NO":999,"REV_AT_EPOCH":22364,"BSTAR":-0.00039600067,"MEAN_MOTION_DOT":-1.48e-6,"MEAN_MOTION_DDOT":0},{"OBJECT_NAME":"OSCAR 24","OBJECT_ID":"1985-066B","EPOCH":"2026-03-09T14:52:42.180960","MEAN_MOTION":13.35952781,"ECCENTRICITY":0.0168053,"INCLINATION":90.1683,"RA_OF_ASC_NODE":93.8019,"ARG_OF_PERICENTER":204.5104,"MEAN_ANOMALY":279.6365,"EPHEMERIS_TYPE":0,"CLASSIFICATION_TYPE":"U","NORAD_CAT_ID":15936,"ELEMENT_SET_NO":999,"REV_AT_EPOCH":97803,"BSTAR":0.00013112,"MEAN_MOTION_DOT":8.1e-7,"MEAN_MOTION_DDOT":0}]
